NORAD_CAT_ID,OBJECT_NAME,OBJECT_TYPE,EPOCH,MEAN_MOTION,ECCENTRICITY,INCLINATION,RA_OF_ASC_NODE,ARG_OF_PERICENTER,MEAN_ANOMALY,BSTAR,MEAN_MOTION_DOT,MEAN_MOTION_DDOT,TLE_LINE0,TLE_LINE1,TLE_LINE2,SEMIMAJOR_AXIS,PERIOD,APOGEE,PERIGEE,DECAYED
55915.0,STARLINK-5859,PAYLOAD,2024-07-16 13:37:26,14.98332381,0.0002937,70.0006,20.151,271.2662,88.816,3.2695e-05,2.97e-06,0.0,0 STARLINK-5859,1 55915U 23037B   24198.56766605  .00000297  00000-0  32695-4 0  9992,2 55915  70.0006  20.1510 0002937 271.2662  88.8160 14.98332381 74134,6950.186,96.107,574.092,570.009,0.0
55915.0,STARLINK-5859,PAYLOAD,2024-07-16 21:38:06,14.98338109,0.0002969,70.0007,19.3092,271.4198,88.6621,4.1211e-05,3.99e-06,0.0,0 STARLINK-5859,1 55915U 23037B   24198.90146120  .00000399  00000-0  41211-4 0  9991,2 55915  70.0007  19.3092 0002969 271.4198  88.6621 14.98338109 73831,6950.168,96.106,574.096,569.969,0.0
55915.0,STARLINK-5859,PAYLOAD,2024-07-17 13:39:27,14.98323658,0.0002615,70.0013,17.6248,267.5369,92.5491,1.4064e-05,7.5e-07,0.0,0 STARLINK-5859,1 55915U 23037B   24199.56907085  .00000075  00000-0  14064-4 0  9996,2 55915  70.0013  17.6248 0002615 267.5369  92.5491 14.98323658 73939,6950.213,96.107,573.895,570.26,0.0
55915.0,STARLINK-5859,PAYLOAD,2024-07-17 21:40:08,14.98325529,0.000269,70.0012,16.7834,269.0546,91.0304,4.1511e-06,-4.3e-07,0.0,0 STARLINK-5859,1 55915U 23037B   24199.90287098 -.00000043  00000-0  41511-5 0  9993,2 55915  70.0012  16.7834 0002690 269.0546  91.0304 14.98325529 74337,6950.207,96.107,573.941,570.202,0.0
55915.0,STARLINK-5859,PAYLOAD,2024-07-18 13:41:28,14.9832722,0.0002893,70.0012,15.1003,271.5415,88.5413,5.4915e-06,-2.7e-07,0.0,0 STARLINK-5859,1 55915U 23037B   24200.57047019 -.00000027  00000-0  54915-5 0  9990,2 55915  70.0012  15.1003 0002893 271.5415  88.5413 14.98327220 74439,6950.201,96.107,574.077,570.056,0.0
55915.0,STARLINK-5859,PAYLOAD,2024-07-18 20:06:00,14.98333104,0.0002857,70.0009,14.4272,269.0036,91.0796,3.4852e-06,-5.1e-07,0.0,0 STARLINK-5859,1 55915U 23037B   24200.83750655 -.00000051  00000-0  34852-5 0  9991,2 55915  70.0009  14.4272 0002857 269.0036  91.0796 14.98333104 74123,6950.183,96.107,574.034,570.063,0.0
55915.0,STARLINK-5859,PAYLOAD,2024-07-18 21:42:08,14.98334053,0.000281,70.001,14.2589,268.1846,91.8991,2.2341e-05,1.74e-06,0.0,0 STARLINK-5859,1 55915U 23037B   24200.90426541  .00000174  00000-0  22341-4 0  9997,2 55915  70.0010  14.2589 0002810 268.1846  91.8991 14.98334053 74480,6950.18,96.107,573.998,570.092,0.0
55915.0,STARLINK-5859,PAYLOAD,2024-07-19 13:43:29,14.98327971,0.0002803,70.0009,12.5756,272.1725,87.9113,9.1819e-05,1.003e-05,0.0,0 STARLINK-5859,1 55915U 23037B   24201.57186670  .00001003  00000-0  91819-4 0  9995,2 55915  70.0009  12.5756 0002803 272.1725  87.9113 14.98327971 74582,6950.199,96.107,574.012,570.116,0.0
55915.0,STARLINK-5859,PAYLOAD,2024-07-19 20:08:01,14.98332663,0.0002853,70.0009,11.9026,271.3782,88.7051,0.00010211,1.126e-05,0.0,0 STARLINK-5859,1 55915U 23037B   24201.83890333  .00001126  00000-0  10211-3 0  9994,2 55915  70.0009  11.9026 0002853 271.3782  88.7051 14.98332663 74274,6950.185,96.107,574.033,570.067,0.0
55915.0,STARLINK-5859,PAYLOAD,2024-07-19 21:44:09,14.98334084,0.0002848,70.0009,11.7343,271.4006,88.6826,0.00011623,1.294e-05,0.0,0 STARLINK-5859,1 55915U 23037B   24201.90566196  .00001294  00000-0  11623-3 0  9993,2 55915  70.0009  11.7343 0002848 271.4006  88.6826 14.98334084 74636,6950.18,96.107,574.025,570.066,0.0
55915.0,STARLINK-5859,PAYLOAD,2024-07-20 13:45:30,14.9833059,0.0002784,70.0011,10.0513,270.8273,89.2567,3.9868e-07,-8.8e-07,0.0,0 STARLINK-5859,1 55915U 23037B   24202.57326718 -.00000088  00000-0  39868-6 0  9996,2 55915  70.0011  10.0513 0002784 270.8273  89.2567 14.98330590 74736,6950.191,96.107,573.991,570.121,0.0
55915.0,STARLINK-5859,PAYLOAD,2024-07-20 20:10:02,14.98332402,0.0002721,70.0014,9.3787,268.1137,91.971,2.6891e-05,2.28e-06,0.0,0 STARLINK-5859,1 55915U 23037B   24202.84030494  .00000228  00000-0  26891-4 0  9994,2 55915  70.0014   9.3787 0002721 268.1137  91.9710 14.98332402 74423,6950.185,96.107,573.942,570.159,0.0
55915.0,STARLINK-5859,PAYLOAD,2024-07-20 21:46:10,14.98333615,0.0002725,70.0014,9.2104,268.1197,91.965,3.95e-05,3.78e-06,0.0,0 STARLINK-5859,1 55915U 23037B   24202.90706371  .00000378  00000-0  39500-4 0  9992,2 55915  70.0014   9.2104 0002725 268.1197  91.9650 14.98333615 74784,6950.182,96.107,573.941,570.153,0.0
55915.0,STARLINK-5859,PAYLOAD,2024-07-21 13:47:31,14.98322115,0.0002724,70.0016,7.5274,264.6318,95.4531,5.9261e-05,6.14e-06,0.0,0 STARLINK-5859,1 55915U 23037B   24203.57466939  .00000614  00000-0  59261-4 0  9998,2 55915  70.0016   7.5274 0002724 264.6318  95.4531 14.98322115 74533,6950.217,96.108,573.976,570.189,0.0
55915.0,STARLINK-5859,PAYLOAD,2024-07-21 20:12:03,14.98328513,0.0002727,70.0017,6.8541,265.8745,94.2102,-5.128e-05,-7.05e-06,0.0,0 STARLINK-5859,1 55915U 23037B   24203.84170900 -.00000705  00000-0 -51280-4 0  9994,2 55915  70.0017   6.8541 0002727 265.8745  94.2102 14.98328513 74925,6950.197,96.107,573.958,570.167,0.0
55915.0,STARLINK-5859,PAYLOAD,2024-07-22 10:37:16,14.98329514,0.0002762,70.0018,5.3397,264.184,95.9004,1.3297e-05,6.6e-07,0.0,0 STARLINK-5859,1 55915U 23037B   24204.44254660  .00000066  00000-0  13297-4 0  9991,2 55915  70.0018   5.3397 0002762 264.1840  95.9004 14.98329514 74668,6950.194,96.107,573.979,570.14,0.0
55915.0,STARLINK-5859,PAYLOAD,2024-07-23 10:39:16,14.98328383,0.0002863,70.0017,2.8153,264.2184,95.8648,6.9379e-05,7.35e-06,0.0,0 STARLINK-5859,1 55915U 23037B   24205.44394576  .00000735  00000-0  69379-4 0  9998,2 55915  70.0017   2.8153 0002863 264.2184  95.8648 14.98328383 74816,6950.198,96.107,574.053,570.073,0.0
55915.0,STARLINK-5859,PAYLOAD,2024-07-23 20:16:05,14.98327964,0.0003049,70.0011,1.805,270.4907,89.5903,2.2815e-05,1.79e-06,0.0,0 STARLINK-5859,1 55915U 23037B   24205.84450820  .00000179  00000-0  22815-4 0  9993,2 55915  70.0011   1.8050 0003049 270.4907  89.5903 14.98327964 75228,6950.199,96.107,574.183,569.945,0.0
55915.0,STARLINK-5859,PAYLOAD,2024-07-24 10:41:18,14.98327475,0.0003002,69.9965,0.2875,270.8405,89.241,-1.8007e-05,-3.08e-06,0.0,0 STARLINK-5859,1 55915U 23037B   24206.44535061 -.00000308  00000-0 -18007-4 0  9995,2 55915  69.9965   0.2875 0003002 270.8405  89.2410 14.98327475 74964,6950.201,96.107,574.152,569.979,0.0
55915.0,STARLINK-5859,PAYLOAD,2024-07-24 20:18:06,14.98333042,0.0002845,69.9976,359.2779,270.0555,90.0278,3.7867e-05,3.59e-06,0.0,0 STARLINK-5859,1 55915U 23037B   24206.84590563  .00000359  00000-0  37867-4 0  9996,2 55915  69.9976 359.2779 0002845 270.0555  90.0278 14.98333042 75373,6950.183,96.107,574.026,570.071,0.0
55915.0,STARLINK-5859,PAYLOAD,2024-07-25 20:20:07,14.98326629,0.0002882,70.0013,356.7517,271.9979,88.0849,2.7741e-05,2.38e-06,0.0,0 STARLINK-5859,1 55915U 23037B   24207.84730951  .00000238  00000-0  27741-4 0  9990,2 55915  70.0013 356.7517 0002882 271.9979  88.0849 14.98326629 75173,6950.203,96.107,574.071,570.065,0.0
55915.0,STARLINK-5859,PAYLOAD,2024-07-26 09:09:11,14.98334583,0.0003006,70.0014,355.4067,274.5859,85.4957,1.3411e-05,6.7e-07,0.0,0 STARLINK-5859,1 55915U 23037B   24208.38138526  .00000067  00000-0  13411-4 0  9999,2 55915  70.0014 355.4067 0003006 274.5859  85.4957 14.98334583 75253,6950.179,96.107,574.133,569.954,0.0
55915.0,STARLINK-5859,PAYLOAD,2024-07-27 02:46:39,14.98337055,0.0003011,69.9999,353.5552,271.7007,88.3807,9.0951e-05,9.93e-06,0.0,0 STARLINK-5859,1 55915U 23037B   24209.11573792  .00000993  00000-0  90951-4 0  9991,2 55915  69.9999 353.5552 0003011 271.7007  88.3807 14.98337055 75714,6950.171,96.107,574.129,569.943,0.0
55915.0,STARLINK-5859,PAYLOAD,2024-07-27 09:11:12,14.98327186,0.0003093,70.004,352.8824,273.1539,86.9266,-1.954e-05,-3.26e-06,0.0,0 STARLINK-5859,1 55915U 23037B   24209.38278720 -.00000326  00000-0 -19540-4 0  9990,2 55915  70.0040 352.8824 0003093 273.1539  86.9266 14.98327186 75407,6950.202,96.107,574.216,569.917,0.0
55915.0,STARLINK-5859,PAYLOAD,2024-07-28 12:25:29,14.98331756,0.0003046,70.0019,350.0218,266.7618,93.3192,-1.4688e-05,-2.68e-06,0.0,0 STARLINK-5859,1 55915U 23037B   24210.51770435 -.00000268  00000-0 -14688-4 0  9990,2 55915  70.0019 350.0218 0003046 266.7618  93.3192 14.98331756 75570,6950.187,96.107,574.169,569.935,0.0
55915.0,STARLINK-5859,PAYLOAD,2024-07-28 18:50:01,14.98336948,0.0002897,70.0018,349.3484,269.4984,90.5843,-2.8038e-05,-4.28e-06,0.0,0 STARLINK-5859,1 55915U 23037B   24210.78474154 -.00000428  00000-0 -28038-4 0  9990,2 55915  70.0018 349.3484 0002897 269.4984  90.5843 14.98336948 75967,6950.171,96.107,574.05,570.023,0.0
55915.0,STARLINK-5859,PAYLOAD,2024-07-29 02:50:42,14.98326502,0.0002996,70.0016,348.5053,270.2916,89.79,0.00011886,1.325e-05,0.0,0 STARLINK-5859,1 55915U 23037B   24211.11854225  .00001325  00000-0  11886-3 0  9996,2 55915  70.0016 348.5053 0002996 270.2916  89.7900 14.98326502 76019,6950.204,96.107,574.151,569.986,0.0
55915.0,STARLINK-5859,PAYLOAD,2024-07-29 18:52:02,14.98327821,0.0002989,70.0017,346.8222,269.8539,90.2278,6.174e-05,6.44e-06,0.0,0 STARLINK-5859,1 55915U 23037B   24211.78614471  .00000644  00000-0  61740-4 0  9994,2 55915  70.0017 346.8222 0002989 269.8539  90.2278 14.98327821 75767,6950.2,96.107,574.142,569.987,0.0
55915.0,STARLINK-5859,PAYLOAD,2024-07-30 09:17:15,14.98331091,0.0002963,70.0017,345.3069,270.2835,89.7985,1.368e-05,7e-07,0.0,0 STARLINK-5859,1 55915U 23037B   24212.38698449  .00000070  00000-0  13680-4 0  9991,2 55915  70.0017 345.3069 0002963 270.2835  89.7985 14.98331091 76209,6950.19,96.107,574.114,569.995,0.0
55915.0,STARLINK-5859,PAYLOAD,2024-07-30 15:41:47,14.98333815,0.0003025,70.0017,344.6347,271.6851,88.3962,3.2916e-05,3e-06,0.0,0 STARLINK-5859,1 55915U 23037B   24212.65402204  .00000300  00000-0  32916-4 0  9992,2 55915  70.0017 344.6347 0003025 271.6851  88.3962 14.98333815 76243,6950.181,96.107,574.149,569.944,0.0
